[{"OBJECT_NAME":"STARLINK-30808","OBJECT_ID":"2023-171W","EPOCH":"2026-03-09T16:00:03.000096","MEAN_MOTION":15.27571391,"ECCENTRICITY":0.00014166,"INCLINATION":42.9999,"RA_OF_ASC_NODE":285.5384,"ARG_OF_PERICENTER":255.7839,"MEAN_ANOMALY":282.5743,"EPHEMERIS_TYPE":0,"CLASSIFICATION_TYPE":"U","NORAD_CAT_ID":58250,"ELEMENT_SET_NO":999,"REV_AT_EPOCH":574,"BSTAR":0.00018538875,"MEAN_MOTION_DOT":4.841e-5,"MEAN_MOTION_DDOT":0},{"OBJECT_NAME":"TEVEL2-5","OBJECT_ID":"2025-052E","EPOCH":"2026-03-09T23:11:54.246048","MEAN_MOTION":15.30817434,"ECCENTRICITY":0.00047002,"INCLINATION":97.4013,"RA_OF_ASC_NODE":325.3677,"ARG_OF_PERICENTER":95.3936,"MEAN_ANOMALY":264.7842,"EPHEMERIS_TYPE":0,"CLASSIFICATION_TYPE":"U","NORAD_CAT_ID":63214,"ELEMENT_SET_NO":999,"REV_AT_EPOCH":5491,"BSTAR":0.00071764727,"MEAN_MOTION_DOT":0.00021339,"MEAN_MOTION_DDOT":0}]
